{
  "type": "FeatureCollection",
  "name": "casernes_sapeurs_pompiers_loire_42",
  "crs": {
    "type": "name",
    "properties": {
      "name": "urn:ogc:def:crs:OGC:1.3:CRS84"
    }
  },
  "features": [
    {
      "type": "Feature",
      "properties": {
        "osm_id": 651697479,
        "osm_type": "way",
        "nom": "Centre d'incendie et de secours d'Andrézieux-Bouthéon",
        "type_cis": "CS",
        "adresse": "1 Boulevard de l'Industrie 42160 Andrézieux-Bouthéon",
        "telephone": "+33 4 77 55 16 36",
        "operateur": "SDIS 42"
      },
      "geometry": {
        "type": "Point",
        "coordinates": [
          4.2582601,
          45.5210696
        ]
      }
    },
    {
      "type": "Feature",
      "properties": {
        "osm_id": 973272236,
        "osm_type": "way",
        "nom": "Centre d'incendie et de secours d'Usson-en-Forez",
        "type_cis": "CPI",
        "adresse": "Route de Saint-Pal 42550 Usson-en-Forez",
        "telephone": "+33 4 77 50 66 21",
        "operateur": "SDIS 42"
      },
      "geometry": {
        "type": "Point",
        "coordinates": [
          3.9418416,
          45.3880484
        ]
      }
    },
    {
      "type": "Feature",
      "properties": {
        "osm_id": 1005412478,
        "osm_type": "way",
        "nom": "Centre d'incendie et de secours de Balbigny",
        "type_cis": "CPI",
        "adresse": "Boulevard de la Tuilerie 42510 Balbigny",
        "telephone": "+33 4 77 28 15 48",
        "operateur": "SDIS 42"
      },
      "geometry": {
        "type": "Point",
        "coordinates": [
          4.1884519,
          45.8179873
        ]
      }
    },
    {
      "type": "Feature",
      "properties": {
        "osm_id": 366189745,
        "osm_type": "way",
        "nom": "Centre d'incendie et de secours de Belmont-de-la-Loire",
        "type_cis": "CPI",
        "adresse": "Chemin de Lacroix 42670 Belmont-de-la-Loire",
        "telephone": "+33 4 77 63 63 90",
        "operateur": "SDIS 42"
      },
      "geometry": {
        "type": "Point",
        "coordinates": [
          4.3473695,
          46.165906
        ]
      }
    },
    {
      "type": "Feature",
      "properties": {
        "osm_id": 893666789,
        "osm_type": "way",
        "nom": "Centre d'incendie et de secours de Bourg-Argental",
        "type_cis": "CPI",
        "adresse": "1 allée des Rivets 42220 Bourg-Argental",
        "telephone": "+33 4 77 39 10 52",
        "operateur": "SDIS 42"
      },
      "geometry": {
        "type": "Point",
        "coordinates": [
          4.5728193,
          45.2988083
        ]
      }
    },
    {
      "type": "Feature",
      "properties": {
        "osm_id": 308790293,
        "osm_type": "way",
        "nom": "Centre d'incendie et de secours de Boën-sur-Lignon",
        "type_cis": "CPI",
        "adresse": "Boulevard Salvador Allende 42130 Boën-sur-Lignon",
        "telephone": "+33 4 77 24 11 27",
        "operateur": "SDIS 42"
      },
      "geometry": {
        "type": "Point",
        "coordinates": [
          4.0012535,
          45.7448615
        ]
      }
    },
    {
      "type": "Feature",
      "properties": {
        "osm_id": 351348305,
        "osm_type": "way",
        "nom": "Centre d'incendie et de secours de Bussières",
        "type_cis": "CPI",
        "adresse": "Rue Aristide Briand 42510 Bussières",
        "telephone": "+33 4 77 27 39 82",
        "operateur": "SDIS 42"
      },
      "geometry": {
        "type": "Point",
        "coordinates": [
          4.2720123,
          45.8354549
        ]
      }
    },
    {
      "type": "Feature",
      "properties": {
        "osm_id": 127120808,
        "osm_type": "way",
        "nom": "Centre d'incendie et de secours de Chalmazel",
        "type_cis": "CPI",
        "adresse": "Route de Couzan 42920 Chalmazel",
        "telephone": "+33 4 77 24 84 95",
        "operateur": "SDIS 42"
      },
      "geometry": {
        "type": "Point",
        "coordinates": [
          3.851446,
          45.7056056
        ]
      }
    },
    {
      "type": "Feature",
      "properties": {
        "osm_id": 801366087,
        "osm_type": "way",
        "nom": "Centre d'incendie et de secours de Charlieu",
        "type_cis": "CPI",
        "adresse": "561 Rue du Brionnais 42190 Charlieu",
        "telephone": "+33 4 77 60 09 23",
        "operateur": "SDIS 42"
      },
      "geometry": {
        "type": "Point",
        "coordinates": [
          4.1722412,
          46.1659365
        ]
      }
    },
    {
      "type": "Feature",
      "properties": {
        "osm_id": 973307805,
        "osm_type": "way",
        "nom": "Centre d'incendie et de secours de Chavanay",
        "type_cis": "CPI",
        "adresse": "135 Route Nationale 86 42410 Chavanay",
        "telephone": "+33 4 74 87 20 18",
        "operateur": "SDIS 42"
      },
      "geometry": {
        "type": "Point",
        "coordinates": [
          4.7368087,
          45.4117267
        ]
      }
    },
    {
      "type": "Feature",
      "properties": {
        "osm_id": 313457523,
        "osm_type": "way",
        "nom": "Centre d'incendie et de secours de Chazelles-sur-Lyon",
        "type_cis": "CPI",
        "adresse": "Rue de Saint-Galmier 42140 Chazelles-sur-Lyon",
        "telephone": "+33 4 77 54 34 09",
        "operateur": "SDIS 42"
      },
      "geometry": {
        "type": "Point",
        "coordinates": [
          4.3781145,
          45.6354834
        ]
      }
    },
    {
      "type": "Feature",
      "properties": {
        "osm_id": 972855773,
        "osm_type": "way",
        "nom": "Centre d'incendie et de secours de Cordelle",
        "type_cis": "CPI",
        "adresse": "473 rue de l'École 42123 Cordelle",
        "telephone": "+33 4 77 64 97 64",
        "operateur": "SDIS 42"
      },
      "geometry": {
        "type": "Point",
        "coordinates": [
          4.0575889,
          45.9411118
        ]
      }
    },
    {
      "type": "Feature",
      "properties": {
        "osm_id": 366149759,
        "osm_type": "way",
        "nom": "Centre d'incendie et de secours de Cremeaux",
        "type_cis": "CPI",
        "adresse": "Route du Forez 42260 Cremeaux",
        "telephone": "+33 4 77 62 52 52",
        "operateur": "SDIS 42"
      },
      "geometry": {
        "type": "Point",
        "coordinates": [
          3.9253745,
          45.907104
        ]
      }
    },
    {
      "type": "Feature",
      "properties": {
        "osm_id": 432812851,
        "osm_type": "way",
        "nom": "Centre d'incendie et de secours de Cuinzier",
        "type_cis": "CPI",
        "adresse": "110 route de Villers 42460 Cuinzier",
        "telephone": "+33 4 77 60 53 02",
        "operateur": "SDIS 42"
      },
      "geometry": {
        "type": "Point",
        "coordinates": [
          4.2580731,
          46.1289146
        ]
      }
    },
    {
      "type": "Feature",
      "properties": {
        "osm_id": 972863434,
        "osm_type": "way",
        "nom": "Centre d'Incendie et de Secours de Doizieux",
        "type_cis": "CPI",
        "telephone": "+33 4 77 20 95 46",
        "operateur": "SDIS 42"
      },
      "geometry": {
        "type": "Point",
        "coordinates": [
          4.5871565,
          45.4266997
        ]
      }
    },
    {
      "type": "Feature",
      "properties": {
        "osm_id": 363914440,
        "osm_type": "way",
        "nom": "Centre d'incendie et de secours de Feurs",
        "type_cis": "CS",
        "adresse": "2 rue Galliéni 42110 Feurs",
        "telephone": "+33 4 77 27 04 48",
        "operateur": "SDIS 42"
      },
      "geometry": {
        "type": "Point",
        "coordinates": [
          4.2199945,
          45.73677
        ]
      }
    },
    {
      "type": "Feature",
      "properties": {
        "osm_id": 973272231,
        "osm_type": "way",
        "nom": "Centre d'incendie et de secours de Firminy",
        "type_cis": "CS",
        "adresse": "35 boulevard de la Corniche 42700 Firminy",
        "telephone": "+33 4 77 40 55 30",
        "operateur": "SDIS 42"
      },
      "geometry": {
        "type": "Point",
        "coordinates": [
          4.2891664,
          45.378311
        ]
      }
    },
    {
      "type": "Feature",
      "properties": {
        "osm_id": 222913676,
        "osm_type": "way",
        "nom": "Centre d'incendie et de secours de Grammond",
        "type_cis": "CPI",
        "adresse": "Rue du Lavoir 42140 Grammond",
        "telephone": "+33 4 77 20 61 79",
        "operateur": "SDIS 42"
      },
      "geometry": {
        "type": "Point",
        "coordinates": [
          4.4415878,
          45.565072
        ]
      }
    },
    {
      "type": "Feature",
      "properties": {
        "osm_id": 170217636,
        "osm_type": "way",
        "nom": "Centre d'incendie et de secours de Jonzieux",
        "type_cis": "CPI",
        "adresse": "18 Les Chauds 42660 Jonzieux",
        "telephone": "+33 4 77 39 97 43",
        "operateur": "SDIS 42"
      },
      "geometry": {
        "type": "Point",
        "coordinates": [
          4.3616404,
          45.3088336
        ]
      }
    },
    {
      "type": "Feature",
      "properties": {
        "osm_id": 366996768,
        "osm_type": "way",
        "nom": "Centre d'incendie et de secours de La Pacaudière",
        "type_cis": "CPI",
        "adresse": "166 route d'Urbise 42310 La Pacaudière",
        "telephone": "+33 4 77 63 21 74",
        "operateur": "SDIS 42"
      },
      "geometry": {
        "type": "Point",
        "coordinates": [
          3.8698118,
          46.1766087
        ]
      }
    },
    {
      "type": "Feature",
      "properties": {
        "osm_id": 973283541,
        "osm_type": "way",
        "nom": "Centre d'incendie et de secours de La Ricamarie",
        "type_cis": "CS",
        "adresse": "Rue du Commandant Bousquet 42150 La Ricamarie",
        "telephone": "+33 4 77 80 09 01",
        "operateur": "SDIS 42"
      },
      "geometry": {
        "type": "Point",
        "coordinates": [
          4.3619895,
          45.4056946
        ]
      }
    },
    {
      "type": "Feature",
      "properties": {
        "osm_id": 265920881,
        "osm_type": "way",
        "nom": "Centre d'incendie et de secours de La Terrasse-sur-Dorlay",
        "type_cis": "CPI",
        "adresse": "127 rue Alphonse Lacombe - 42740 La Terrasse-sur-Dorlay",
        "telephone": "+33 4 77 20 98 05",
        "operateur": "SDIS 42"
      },
      "geometry": {
        "type": "Point",
        "coordinates": [
          4.5839046,
          45.4484617
        ]
      }
    },
    {
      "type": "Feature",
      "properties": {
        "osm_id": 145778847,
        "osm_type": "way",
        "nom": "Centre d'incendie et de secours de La Vallée-du-Gier",
        "type_cis": "CS",
        "adresse": "2T rue Louis Pasteur 42320 La Grand-Croix",
        "telephone": "+33 4 77 73 25 35",
        "operateur": "SDIS 42"
      },
      "geometry": {
        "type": "Point",
        "coordinates": [
          4.567288,
          45.5020775
        ]
      }
    },
    {
      "type": "Feature",
      "properties": {
        "osm_id": 973283544,
        "osm_type": "way",
        "nom": "Centre d'incendie et de secours de Le Berland/Roche-la-Molière",
        "type_cis": "CS",
        "adresse": "Allée des Camions Rouges 42230 Saint-Victor-sur-Loire",
        "telephone": "+33 4 77 90 02 73",
        "operateur": "SDIS 42"
      },
      "geometry": {
        "type": "Point",
        "coordinates": [
          4.3047581,
          45.4333317
        ]
      }
    },
    {
      "type": "Feature",
      "properties": {
        "osm_id": 863393679,
        "osm_type": "way",
        "nom": "Centre d'incendie et de secours de Maclas",
        "type_cis": "CPI",
        "adresse": "7 rue Jean-François Choron 42520 Maclas",
        "telephone": "+33 4 74 87 42 91",
        "operateur": "SDIS 42"
      },
      "geometry": {
        "type": "Point",
        "coordinates": [
          4.6916882,
          45.3673997
        ]
      }
    },
    {
      "type": "Feature",
      "properties": {
        "osm_id": 973294453,
        "osm_type": "way",
        "nom": "Centre d'incendie et de secours de Marlhes - Saint-Régis-du-Coin",
        "type_cis": "CPI",
        "adresse": "Route de Saint-Genest 42660 Marlhes",
        "telephone": "+33 4 77 51 25 64",
        "operateur": "SDIS 42"
      },
      "geometry": {
        "type": "Point",
        "coordinates": [
          4.4005968,
          45.2851548
        ]
      }
    },
    {
      "type": "Feature",
      "properties": {
        "osm_id": 972855772,
        "osm_type": "way",
        "nom": "Centre d'incendie et de secours de Montagny",
        "type_cis": "CPI",
        "adresse": "48 rue de Roanne 42840 Montagny",
        "telephone": "+33 4 77 66 15 46",
        "operateur": "SDIS 42"
      },
      "geometry": {
        "type": "Point",
        "coordinates": [
          4.2293692,
          46.0324174
        ]
      }
    },
    {
      "type": "Feature",
      "properties": {
        "osm_id": 972855782,
        "osm_type": "way",
        "nom": "Centre d'incendie et de secours de Montbrison",
        "type_cis": "CS",
        "adresse": "6 avenue Charles de Gaulle 42600 Montbrison",
        "telephone": "+33 4 77 96 36 00",
        "operateur": "SDIS 42"
      },
      "geometry": {
        "type": "Point",
        "coordinates": [
          4.0680318,
          45.6136006
        ]
      }
    },
    {
      "type": "Feature",
      "properties": {
        "osm_id": 972930163,
        "osm_type": "way",
        "nom": "Centre d'incendie et de secours de Montrond-les-Bains",
        "type_cis": "CPI",
        "adresse": "Rue des Rotys 42210 Montrond-les-Bains",
        "telephone": "+33 4 77 94 50 48",
        "operateur": "SDIS 42"
      },
      "geometry": {
        "type": "Point",
        "coordinates": [
          4.2339252,
          45.6502872
        ]
      }
    },
    {
      "type": "Feature",
      "properties": {
        "osm_id": 972905972,
        "osm_type": "way",
        "nom": "Centre d'incendie et de secours de Neulise",
        "type_cis": "CPI",
        "adresse": "ZA les Jacqins 42590 Neulise",
        "telephone": "+33 4 77 64 65 35",
        "operateur": "SDIS 42"
      },
      "geometry": {
        "type": "Point",
        "coordinates": [
          4.1797033,
          45.8870917
        ]
      }
    },
    {
      "type": "Feature",
      "properties": {
        "osm_id": 319496526,
        "osm_type": "way",
        "nom": "Centre d'incendie et de secours de Noirétable",
        "type_cis": "CPI",
        "adresse": "3 rue de la Condamine 42440 Noirétable",
        "telephone": "+33 4 77 24 99 38",
        "operateur": "SDIS 42"
      },
      "geometry": {
        "type": "Point",
        "coordinates": [
          3.763326,
          45.816645
        ]
      }
    },
    {
      "type": "Feature",
      "properties": {
        "osm_id": 236545065,
        "osm_type": "way",
        "nom": "Centre d'incendie et de secours de Panissières",
        "type_cis": "CPI",
        "adresse": "7 rue Louis Minjard 42360 Panissières",
        "telephone": "+33 4 77 28 75 62",
        "operateur": "SDIS 42"
      },
      "geometry": {
        "type": "Point",
        "coordinates": [
          4.340971,
          45.7891315
        ]
      }
    },
    {
      "type": "Feature",
      "properties": {
        "osm_id": 311322670,
        "osm_type": "way",
        "nom": "Centre d'incendie et de secours de Pouilly-sous-Charlieu",
        "type_cis": "CPI",
        "adresse": "173 rue de la République - 42720 Pouilly-sous-Charlieu",
        "telephone": "+33 4 77 69 94 06",
        "operateur": "SDIS 42"
      },
      "geometry": {
        "type": "Point",
        "coordinates": [
          4.1086054,
          46.1445533
        ]
      }
    },
    {
      "type": "Feature",
      "properties": {
        "osm_id": 1028892370,
        "osm_type": "way",
        "nom": "Centre d'incendie et de secours de Pélussin",
        "type_cis": "CS",
        "adresse": "15 rue des Prairies 42410 Pélussin"
      },
      "geometry": {
        "type": "Point",
        "coordinates": [
          4.6723215,
          45.4242614
        ]
      }
    },
    {
      "type": "Feature",
      "properties": {
        "osm_id": 972863439,
        "osm_type": "way",
        "nom": "Centre d'incendie et de secours de Périgneux",
        "type_cis": "CPI",
        "adresse": "La Conche - 42380 Périgneux",
        "telephone": "+33 4 77 30 74 04",
        "operateur": "SDIS 42"
      },
      "geometry": {
        "type": "Point",
        "coordinates": [
          4.1552818,
          45.4389084
        ]
      }
    },
    {
      "type": "Feature",
      "properties": {
        "osm_id": 972881171,
        "osm_type": "way",
        "nom": "Centre d'incendie et de secours de Renaison",
        "type_cis": "CPI",
        "adresse": "410 rue de l’Annexe 42370 Renaison",
        "telephone": "+33 4 77 64 23 64",
        "operateur": "SDIS 42"
      },
      "geometry": {
        "type": "Point",
        "coordinates": [
          3.9317978,
          46.0541742
        ]
      }
    },
    {
      "type": "Feature",
      "properties": {
        "osm_id": 780669329,
        "osm_type": "way",
        "nom": "Centre d'incendie et de secours de Rive-de-Gier",
        "type_cis": "CS",
        "adresse": "1 rue du Sardon 42800 Rive-de-Gier",
        "telephone": "+33 4 77 83 99 42",
        "operateur": "SDIS 42"
      },
      "geometry": {
        "type": "Point",
        "coordinates": [
          4.5981337,
          45.5225805
        ]
      }
    },
    {
      "type": "Feature",
      "properties": {
        "osm_id": 370346316,
        "osm_type": "way",
        "nom": "Centre d'incendie et de secours de Rozier-en-Donzy",
        "type_cis": "CPI",
        "adresse": "24 rue du Poêt 42810 Rozier-en-Donzy",
        "telephone": "+33 4 77 28 30 78",
        "operateur": "SDIS 42"
      },
      "geometry": {
        "type": "Point",
        "coordinates": [
          4.276373,
          45.7954385
        ]
      }
    },
    {
      "type": "Feature",
      "properties": {
        "osm_id": 410859611,
        "osm_type": "way",
        "nom": "Centre d'incendie et de secours de Sail-sous-Couzan",
        "type_cis": "CPI",
        "adresse": "Rue du Moulin 42890 Sail-sous-Couzan",
        "telephone": "+33 4 77 24 59 81",
        "operateur": "SDIS 42"
      },
      "geometry": {
        "type": "Point",
        "coordinates": [
          3.9721275,
          45.7345495
        ]
      }
    },
    {
      "type": "Feature",
      "properties": {
        "osm_id": 972855775,
        "osm_type": "way",
        "nom": "Centre d'incendie et de secours de Saint-Alban-les-Eaux",
        "type_cis": "CPI",
        "adresse": "181 Petite rue Malène 42370 Saint-Alban-les-Eaux",
        "telephone": "+33 4 77 65 94 46",
        "operateur": "SDIS 42"
      },
      "geometry": {
        "type": "Point",
        "coordinates": [
          3.9428016,
          46.0174282
        ]
      }
    },
    {
      "type": "Feature",
      "properties": {
        "osm_id": 973272232,
        "osm_type": "way",
        "nom": "Centre d'incendie et de secours de Saint-Bonnet/Saint-Nizier",
        "type_cis": "CPI",
        "adresse": "6681 chemin des Pépinières 42380 Saint-Bonnet-le-Château",
        "telephone": "+33 4 77 50 09 53",
        "operateur": "SDIS 42"
      },
      "geometry": {
        "type": "Point",
        "coordinates": [
          4.0644546,
          45.4305594
        ]
      }
    },
    {
      "type": "Feature",
      "properties": {
        "osm_id": 119203279,
        "osm_type": "way",
        "nom": "Centre d'incendie et de secours de Saint-Chamond",
        "type_cis": "CSP",
        "adresse": "70 boulevard Waldeck Rousseau 42400 Saint-Chamond",
        "telephone": "+33 4 77 29 84 80",
        "operateur": "SDIS 42"
      },
      "geometry": {
        "type": "Point",
        "coordinates": [
          4.5034985,
          45.4743465
        ]
      }
    },
    {
      "type": "Feature",
      "properties": {
        "osm_id": 973300333,
        "osm_type": "way",
        "nom": "Centre d'incendie et de secours de Saint-Christo-en-Jarez",
        "type_cis": "CPI",
        "adresse": "2 route de Fontanes 42320 Saint-Christo-en-Jarez",
        "telephone": "+33 4 77 20 75 75",
        "operateur": "SDIS 42"
      },
      "geometry": {
        "type": "Point",
        "coordinates": [
          4.4857592,
          45.5455289
        ]
      }
    },
    {
      "type": "Feature",
      "properties": {
        "osm_id": 399233456,
        "osm_type": "way",
        "nom": "Centre d'incendie et de secours de Saint-Cyr-de-Valorges",
        "type_cis": "CPI",
        "adresse": "73 chemin du Clos - 42114 Saint-Cyr-de-Valorges",
        "telephone": "+33 4 77 62 49 60",
        "operateur": "SDIS 42"
      },
      "geometry": {
        "type": "Point",
        "coordinates": [
          4.3067015,
          45.8927625
        ]
      }
    },
    {
      "type": "Feature",
      "properties": {
        "osm_id": 783638829,
        "osm_type": "way",
        "nom": "Centre d'incendie et de secours de Saint-Denis-de-Cabanne",
        "type_cis": "CPI",
        "adresse": "Rue de l'Industrie - 42750 Saint-Denis-de-Cabanne",
        "telephone": "+33 4 77 69 03 31",
        "operateur": "SDIS 42"
      },
      "geometry": {
        "type": "Point",
        "coordinates": [
          4.2091057,
          46.1746592
        ]
      }
    },
    {
      "type": "Feature",
      "properties": {
        "osm_id": 972863448,
        "osm_type": "way",
        "nom": "Centre d'incendie et de secours de Saint-Galmier",
        "type_cis": "CS",
        "adresse": "73 rue de la Richelande 42330 Saint-Galmier",
        "telephone": "+33 4 77 54 02 07",
        "operateur": "SDIS 42"
      },
      "geometry": {
        "type": "Point",
        "coordinates": [
          4.3144376,
          45.583617
        ]
      }
    },
    {
      "type": "Feature",
      "properties": {
        "osm_id": 973294458,
        "osm_type": "way",
        "nom": "Centre d'incendie et de secours de Saint-Genest-Malifaux",
        "type_cis": "CPI",
        "adresse": "Rue de l'Étang 42660 Saint-Genest-Malifaux",
        "telephone": "+33 4 77 51 25 64",
        "operateur": "SDIS 42"
      },
      "geometry": {
        "type": "Point",
        "coordinates": [
          4.4180611,
          45.3409987
        ]
      }
    },
    {
      "type": "Feature",
      "properties": {
        "osm_id": 164085682,
        "osm_type": "way",
        "nom": "Centre d'incendie et de secours de Saint-Georges-en-Couzan",
        "type_cis": "CPI",
        "adresse": "18 Le Bourg 42990 Saint-Georges-en-Couzan",
        "telephone": "+33 4 77 24 87 28",
        "operateur": "SDIS 42"
      },
      "geometry": {
        "type": "Point",
        "coordinates": [
          3.931625,
          45.7066275
        ]
      }
    },
    {
      "type": "Feature",
      "properties": {
        "osm_id": 1443291646,
        "osm_type": "way",
        "nom": "Centre d'incendie et de secours de Saint-Germain-Laval",
        "type_cis": "CPI",
        "adresse": "98 Route de Pommiers 42260 Saint-Germain-Laval",
        "telephone": "+33 4 77 65 50 50",
        "operateur": "SDIS 42"
      },
      "geometry": {
        "type": "Point",
        "coordinates": [
          4.0248365,
          45.8325504
        ]
      }
    },
    {
      "type": "Feature",
      "properties": {
        "osm_id": 972863445,
        "osm_type": "way",
        "nom": "Centre d'incendie et de secours de Saint-Héand",
        "type_cis": "CPI",
        "adresse": "3 rue de la Montuclarde 42570 Saint-Héand",
        "telephone": "+33 4 77 30 93 41",
        "operateur": "SDIS 42"
      },
      "geometry": {
        "type": "Point",
        "coordinates": [
          4.3770061,
          45.5362482
        ]
      }
    },
    {
      "type": "Feature",
      "properties": {
        "osm_id": 973286073,
        "osm_type": "way",
        "nom": "Centre d'incendie et de secours de Saint-Jean-Bonnefonds",
        "type_cis": "CS",
        "adresse": "Chemin de Poyeton 42650 Saint-Jean-Bonnefonds",
        "telephone": "+33 4 77 95 04 01",
        "operateur": "SDIS 42"
      },
      "geometry": {
        "type": "Point",
        "coordinates": [
          4.4408586,
          45.443034
        ]
      }
    },
    {
      "type": "Feature",
      "properties": {
        "osm_id": 173192019,
        "osm_type": "way",
        "nom": "Centre d'incendie et de secours de Saint-Jean-Soleymieux",
        "type_cis": "CPI",
        "adresse": "194 Au Travers 42560 Saint-Jean-Soleymieux",
        "telephone": "+33 4 77 76 74 86",
        "operateur": "SDIS 42"
      },
      "geometry": {
        "type": "Point",
        "coordinates": [
          4.0406954,
          45.501068
        ]
      }
    },
    {
      "type": "Feature",
      "properties": {
        "osm_id": 893666800,
        "osm_type": "way",
        "nom": "Centre d'incendie et de secours de Saint-Julien-Molin-Molette",
        "type_cis": "CPI",
        "adresse": "7C rue du Tacon 42220 Saint-Julien-Molin-Molette",
        "telephone": "+33 4 77 51 54 90",
        "operateur": "SDIS 42"
      },
      "geometry": {
        "type": "Point",
        "coordinates": [
          4.6174789,
          45.3190668
        ]
      }
    },
    {
      "type": "Feature",
      "properties": {
        "osm_id": 972855770,
        "osm_type": "way",
        "nom": "Centre d'incendie et de secours de Saint-Just Saint-Rambert",
        "type_cis": "CPI",
        "adresse": "Route de Saint Côme 42170 Saint-Just Saint-Rambert",
        "telephone": "+33 4 77 52 13 48",
        "operateur": "SDIS 42"
      },
      "geometry": {
        "type": "Point",
        "coordinates": [
          4.2369069,
          45.5104611
        ]
      }
    },
    {
      "type": "Feature",
      "properties": {
        "osm_id": 407968441,
        "osm_type": "way",
        "nom": "Centre d'incendie et de secours de Saint-Just-en-Chevalet",
        "type_cis": "CPI",
        "adresse": "Route de Thiers 42430 Saint-Just-en-Chevalet",
        "telephone": "+33 4 77 65 03 10",
        "operateur": "SDIS 42"
      },
      "geometry": {
        "type": "Point",
        "coordinates": [
          3.8433215,
          45.909935
        ]
      }
    },
    {
      "type": "Feature",
      "properties": {
        "osm_id": 1524772412,
        "osm_type": "way",
        "nom": "Centre d'incendie et de secours de Saint-Just-la-Pendue",
        "type_cis": "CPI",
        "adresse": "693 rue Fernand Merlin 42540 Saint-Just-la-Pendue",
        "telephone": "+33 4 77 63 20 20",
        "operateur": "SDIS 42"
      },
      "geometry": {
        "type": "Point",
        "coordinates": [
          4.2306435,
          45.8968602
        ]
      }
    },
    {
      "type": "Feature",
      "properties": {
        "osm_id": 780669331,
        "osm_type": "way",
        "nom": "Centre d'incendie et de secours de Saint-Martin-la-Plaine",
        "type_cis": "CPI",
        "adresse": "1 route de Gitoux 42800 Saint-Martin-la-Plaine",
        "telephone": "+33 4 77 75 97 38",
        "operateur": "SDIS 42"
      },
      "geometry": {
        "type": "Point",
        "coordinates": [
          4.5903683,
          45.5478734
        ]
      }
    },
    {
      "type": "Feature",
      "properties": {
        "osm_id": 311340129,
        "osm_type": "way",
        "nom": "Centre d'incendie et de secours de Saint-Martin-la-Sauveté",
        "type_cis": "CPI",
        "adresse": "Rue des Rapeaux 42260 Saint-Martin-la-Sauveté",
        "telephone": "+33 4 77 62 25 22",
        "operateur": "SDIS 42"
      },
      "geometry": {
        "type": "Point",
        "coordinates": [
          3.92546,
          45.8313945
        ]
      }
    },
    {
      "type": "Feature",
      "properties": {
        "osm_id": 315723031,
        "osm_type": "way",
        "nom": "Centre d'incendie et de secours de Saint-Martin-Lestra",
        "type_cis": "CPI",
        "adresse": "72 chemin des Sirènes 42110 Saint-Martin-Lestra",
        "telephone": "+33 4 77 28 56 52",
        "operateur": "SDIS 42"
      },
      "geometry": {
        "type": "Point",
        "coordinates": [
          4.3563915,
          45.7210745
        ]
      }
    },
    {
      "type": "Feature",
      "properties": {
        "osm_id": 972863437,
        "osm_type": "way",
        "nom": "Centre d'incendie et de secours de Saint-Maurice-en-Gourgois",
        "type_cis": "CPI",
        "adresse": "Route de Firminy 42240 Saint-Maurice-en-Gourgois",
        "telephone": "+33 4 77 50 36 30",
        "operateur": "SDIS 42"
      },
      "geometry": {
        "type": "Point",
        "coordinates": [
          4.1887718,
          45.4038922
        ]
      }
    },
    {
      "type": "Feature",
      "properties": {
        "osm_id": 893666703,
        "osm_type": "way",
        "nom": "Centre d'incendie et de secours de Saint-Pierre-de-Bœuf",
        "type_cis": "CPI",
        "adresse": "3 avenue du Rhône 42520 Saint-Pierre-de-Boeuf",
        "telephone": "+33 4 74 87 14 65",
        "operateur": "SDIS 42"
      },
      "geometry": {
        "type": "Point",
        "coordinates": [
          4.748666,
          45.3864018
        ]
      }
    },
    {
      "type": "Feature",
      "properties": {
        "osm_id": 193384345,
        "osm_type": "way",
        "nom": "Centre d'incendie et de secours de Saint-Romain-le-Puy",
        "type_cis": "CPI",
        "adresse": "3 rue du 11 Novembre 42610 Saint-Romain-le-Puy",
        "telephone": "+33 4 77 76 04 98",
        "operateur": "SDIS 42"
      },
      "geometry": {
        "type": "Point",
        "coordinates": [
          4.1263568,
          45.5529781
        ]
      }
    },
    {
      "type": "Feature",
      "properties": {
        "osm_id": 1235835841,
        "osm_type": "way",
        "nom": "Centre d'incendie et de secours de Saint-Régis-du-Coin",
        "type_cis": "CPI",
        "adresse": "Place de l’Église",
        "operateur": "SDIS 42"
      },
      "geometry": {
        "type": "Point",
        "coordinates": [
          4.4449046,
          45.2833957
        ]
      }
    },
    {
      "type": "Feature",
      "properties": {
        "osm_id": 893666802,
        "osm_type": "way",
        "nom": "Centre d'incendie et de secours de Saint-Sauveur-en-Rue",
        "type_cis": "CPI",
        "adresse": "28 Route du Tracol 42220 Saint-Sauveur-en-Rue",
        "telephone": "+33 4 77 39 28 12",
        "operateur": "SDIS 42"
      },
      "geometry": {
        "type": "Point",
        "coordinates": [
          4.4926755,
          45.2655856
        ]
      }
    },
    {
      "type": "Feature",
      "properties": {
        "osm_id": 337981241,
        "osm_type": "way",
        "nom": "Centre d'incendie et de secours de Saint-Symphorien-de-Lay",
        "type_cis": "CPI",
        "adresse": "86 Route de Roanne 42470 Saint-Symphorien-de-Lay",
        "telephone": "+33 4 77 64 70 89",
        "operateur": "SDIS 42"
      },
      "geometry": {
        "type": "Point",
        "coordinates": [
          4.2171005,
          45.9469629
        ]
      }
    },
    {
      "type": "Feature",
      "properties": {
        "osm_id": 973274362,
        "osm_type": "way",
        "nom": "Centre d'incendie et de secours de Sury-le-Comtal",
        "type_cis": "CPI",
        "adresse": "7786 Rue des Chartonnes 42450 Sury-le-Comtal",
        "telephone": "+33 4 77 30 88 14",
        "operateur": "SDIS 42"
      },
      "geometry": {
        "type": "Point",
        "coordinates": [
          4.1812566,
          45.5424333
        ]
      }
    },
    {
      "type": "Feature",
      "properties": {
        "osm_id": 156476006,
        "osm_type": "way",
        "nom": "Centre d'incendie et de secours de Violay",
        "type_cis": "PA",
        "operateur": "SDIS 42"
      },
      "geometry": {
        "type": "Point",
        "coordinates": [
          4.356444,
          45.8520825
        ]
      }
    },
    {
      "type": "Feature",
      "properties": {
        "osm_id": 431534081,
        "osm_type": "way",
        "nom": "Centre d'incendie et de secours du Cergne",
        "type_cis": "CPI",
        "adresse": "54 chemin du Bois de Joux 42460 Le Cergne",
        "telephone": "+33 4 74 89 94 46",
        "operateur": "SDIS 42"
      },
      "geometry": {
        "type": "Point",
        "coordinates": [
          4.3058615,
          46.1203732
        ]
      }
    },
    {
      "type": "Feature",
      "properties": {
        "osm_id": 973272230,
        "osm_type": "way",
        "nom": "Centre d'incendie et de secours du Chambon Feugerolles",
        "type_cis": "CS",
        "adresse": "2 bis rue Edouard Michot 42500 Le Chambon Feugerolles",
        "telephone": "+33 4 77 89 46 23",
        "operateur": "SDIS 42"
      },
      "geometry": {
        "type": "Point",
        "coordinates": [
          4.3268063,
          45.3981745
        ]
      }
    },
    {
      "type": "Feature",
      "properties": {
        "osm_id": 444325587,
        "osm_type": "way",
        "nom": "Centre d'incendie et de Secours du Val de Rhins",
        "type_cis": "CPI",
        "adresse": "2 rue du capitaine Razon 42630 Régny",
        "telephone": "+33 4 77 63 07 35",
        "operateur": "SDIS 42"
      },
      "geometry": {
        "type": "Point",
        "coordinates": [
          4.2189009,
          45.9926436
        ]
      }
    },
    {
      "type": "Feature",
      "properties": {
        "osm_id": 927927794,
        "osm_type": "way",
        "nom": "Centre de secours principal de Roanne",
        "type_cis": "CSP",
        "adresse": "1 place Dr Thiodet 42300 Roanne",
        "telephone": "+33 4 77 23 27 27",
        "operateur": "SDIS 42",
        "website": "https://www.sdis42.fr/page/centre-de-roanne"
      },
      "geometry": {
        "type": "Point",
        "coordinates": [
          4.0864857,
          46.0421852
        ]
      }
    },
    {
      "type": "Feature",
      "properties": {
        "osm_id": 973289101,
        "osm_type": "way",
        "nom": "Centre de secours principal de Saint-Étienne - La Métare",
        "type_cis": "CSP",
        "adresse": "22 boulevard Karl-Marx 42000 Saint-Étienne",
        "telephone": "+33 4 77 43 18 70",
        "operateur": "SDIS 42"
      },
      "geometry": {
        "type": "Point",
        "coordinates": [
          4.4142432,
          45.4257473
        ]
      }
    },
    {
      "type": "Feature",
      "properties": {
        "osm_id": 973283556,
        "osm_type": "way",
        "nom": "Centre de secours principal de Saint-Étienne - Séverine",
        "type_cis": "CSP",
        "adresse": "16 rue des Brunandières 42000 Saint-Etienne",
        "telephone": "+33 4 77 43 18 50",
        "operateur": "SDIS 42"
      },
      "geometry": {
        "type": "Point",
        "coordinates": [
          4.371875,
          45.4348983
        ]
      }
    },
    {
      "type": "Feature",
      "properties": {
        "osm_id": 844810322,
        "osm_type": "way",
        "nom": "Centre de secours principal Saint-Étienne-Terrasse",
        "type_cis": "CSP",
        "adresse": "59 rue de la Tour 42000 Saint-Étienne",
        "telephone": "+33 4 77 92 18 90",
        "operateur": "SDIS 42"
      },
      "geometry": {
        "type": "Point",
        "coordinates": [
          4.3876239,
          45.4678047
        ]
      }
    }
  ]
}