{
  "type": "FeatureCollection",
  "name": "clinic_loire_42",
  "crs": {
    "type": "name",
    "properties": {
      "name": "urn:ogc:def:crs:OGC:1.3:CRS84"
    }
  },
  "features": [
    {
      "type": "Feature",
      "properties": {
        "osm_id": 8680329121,
        "osm_type": "node",
        "amenity": "clinic",
        "nom": "ADAPEI Centre médical / Dispensaire",
        "adresse": "49 Avenue Berthelot 42152 L'Horme",
        "specialite": "clinic"
      },
      "geometry": {
        "type": "Point",
        "coordinates": [
          4.5598601,
          45.4940722
        ]
      }
    },
    {
      "type": "Feature",
      "properties": {
        "osm_id": 10272878870,
        "osm_type": "node",
        "amenity": "clinic",
        "nom": "Centre Médical des Sables",
        "specialite": "clinic"
      },
      "geometry": {
        "type": "Point",
        "coordinates": [
          4.0355885,
          46.0489138
        ]
      }
    },
    {
      "type": "Feature",
      "properties": {
        "osm_id": 1000799,
        "osm_type": "relation",
        "amenity": "clinic",
        "nom": "Centre médical des Sept Collines",
        "operateur": "AIMV"
      },
      "geometry": {
        "type": "Point",
        "coordinates": [
          4.4182534,
          45.4263099
        ]
      }
    },
    {
      "type": "Feature",
      "properties": {
        "osm_id": 9884578313,
        "osm_type": "node",
        "amenity": "clinic",
        "nom": "Centre Médical Mulsant",
        "specialite": "clinic"
      },
      "geometry": {
        "type": "Point",
        "coordinates": [
          4.0612497,
          46.0385539
        ]
      }
    },
    {
      "type": "Feature",
      "properties": {
        "osm_id": 1103664581,
        "osm_type": "way",
        "amenity": "clinic",
        "nom": "Centre médico-psychologique",
        "operateur": "CHU de Saint-Étienne",
        "adresse": "Rue de l'Alcazar 42700 Firminy",
        "specialite": "clinic"
      },
      "geometry": {
        "type": "Point",
        "coordinates": [
          4.2933885,
          45.3953617
        ]
      }
    },
    {
      "type": "Feature",
      "properties": {
        "osm_id": 9242939679,
        "osm_type": "node",
        "amenity": "clinic",
        "nom": "Clinique Alma Santé",
        "operateur": "Inicea",
        "adresse": "165 Rue Francis Laur",
        "telephone": "+33477361500",
        "horaires": "Mo-Su 09:00-12:00, 14:00-18:00",
        "website": "https://www.inicea.fr/smr/clinique-alma-sante-loire-42210"
      },
      "geometry": {
        "type": "Point",
        "coordinates": [
          4.2375145,
          45.639373
        ]
      }
    },
    {
      "type": "Feature",
      "properties": {
        "osm_id": 62804878,
        "osm_type": "way",
        "amenity": "clinic",
        "nom": "Clinique de Saint-Victor",
        "operateur": "Ramsay Santé",
        "telephone": "+33 4 77 90 74 74",
        "specialite": "clinic",
        "website": "https://clinique-saint-victor.ramsaysante.fr/"
      },
      "geometry": {
        "type": "Point",
        "coordinates": [
          4.2650888,
          45.4535564
        ]
      }
    },
    {
      "type": "Feature",
      "properties": {
        "osm_id": 166544010,
        "osm_type": "way",
        "amenity": "clinic",
        "nom": "Clinique des Monts du Forez",
        "operateur": "Ramsay/Générale de Santé",
        "adresse": "568 Route de Chassignol 42120 Commelle-Vernay",
        "specialite": "clinic"
      },
      "geometry": {
        "type": "Point",
        "coordinates": [
          4.0580495,
          45.9769895
        ]
      }
    }
  ]
}