{"type":"FeatureCollection","features":[{"type":"Feature","properties":{"dfci":"KF","resolution_km":100,"label":"DFCI KF (100 km)"},"geometry":{"type":"Polygon","coordinates":[[[4.8754241281795725,45.06155550564253],[4.879529277114082,45.15146172240137],[4.883646977975357,45.24136954461674],[4.8877776125523384,45.331279237334286],[4.891922046344782,45.42119187041392],[4.896080771963669,45.511107661131874],[4.9002532364895925,45.60102503692157],[4.9044390310497015,45.69094259308324],[4.908637811885735,45.78086041728394],[4.912849313811569,45.87077924484517],[5.0,45.86875000668531],[5.0,45.00000000000001],[4.872656533307747,45.000785311366464],[4.8754241281795725,45.06155550564253]]]}},{"type":"Feature","properties":{"dfci":"HF","resolution_km":100,"label":"DFCI HF (100 km)"},"geometry":{"type":"Polygon","coordinates":[[[3.60631466520607,45.08334013476617],[3.6083676534367504,45.173282258423505],[3.6104273461710212,45.26322695042423],[3.6124941486433326,45.35317414149548],[3.6145681191819765,45.44312356431708],[3.616649044563445,45.53307479721759],[3.618736731807786,45.623027411731066],[3.6208310993969928,45.712981054273094],[3.6229320887490686,45.80293551162448],[3.625039731452706,45.89289078528939],[3.7538629620364703,45.89134325313479],[3.882677970714854,45.889648682029986],[4.011484797182408,45.887806401808014],[4.140283139851844,45.88581604606778],[4.269072382921317,45.88367818481367],[4.397851875830216,45.881393255526675],[4.526620498380944,45.87896087422755],[4.655376630188112,45.876381038762894],[4.7841195079224645,45.873653847429956],[4.912849313811569,45.87077924484517],[4.908637811885735,45.78086041728394],[4.9044390310497015,45.69094259308324],[4.9002532364895925,45.60102503692157],[4.896080771963669,45.511107661131874],[4.891922046344782,45.42119187041392],[4.8877776125523384,45.331279237334286],[4.883646977975357,45.24136954461674],[4.879529277114082,45.15146172240137],[4.8754241281795725,45.06155550564253],[4.872656533307747,45.000785311366464],[3.6044329415262983,45.00065477545222],[3.60631466520607,45.08334013476617]]]}},{"type":"Feature","properties":{"dfci":"GF","resolution_km":100,"label":"DFCI GF (100 km)"},"geometry":{"type":"Polygon","coordinates":[[[3.625039731452706,45.89289078528939],[3.6229320887490686,45.80293551162448],[3.6208310993969928,45.712981054273094],[3.618736731807786,45.623027411731066],[3.616649044563445,45.53307479721759],[3.6145681191819765,45.44312356431708],[3.6124941486433326,45.35317414149548],[3.6104273461710212,45.26322695042423],[3.6083676534367504,45.173282258423505],[3.60631466520607,45.08334013476617],[3.6044329415262983,45.00065477545222],[3.500000000000001,45.00000000000001],[3.500000000000001,45.89425229242314],[3.625039731452706,45.89289078528939]]]}},{"type":"Feature","properties":{"dfci":"KG","resolution_km":100,"label":"DFCI KG (100 km)"},"geometry":{"type":"Polygon","coordinates":[[[4.91707358361747,45.960699452803965],[4.921311815257214,46.05062034200703],[4.925566121189848,46.14054103660891],[4.929835582070612,46.23046159618361],[4.934117265643261,46.32038235073521],[4.938413156581861,46.41030221719529],[4.942723334926226,46.50022134389393],[4.942730057986909,46.500361300557145],[4.999999999999999,46.50000000000001],[5.0,45.86875000668531],[4.912849313811569,45.87077924484517],[4.91707358361747,45.960699452803965]]]}},{"type":"Feature","properties":{"dfci":"HG","resolution_km":100,"label":"DFCI HG (100 km)"},"geometry":{"type":"Polygon","coordinates":[[[3.627154008234815,45.982847082488],[3.629275272026001,46.072804120707616],[3.631403745149474,46.16276148910828],[3.6335393972747667,46.252718849894414],[3.6356819715503965,46.34267598444586],[3.6378311730466413,46.43263268653064],[3.639464937789434,46.50082971407509],[4.942730057986909,46.500361300557145],[4.942723334926226,46.50022134389393],[4.938413156581861,46.41030221719529],[4.934117265643261,46.32038235073521],[4.929835582070612,46.23046159618361],[4.925566121189848,46.14054103660891],[4.921311815257214,46.05062034200703],[4.91707358361747,45.960699452803965],[4.912849313811569,45.87077924484517],[4.7841195079224645,45.873653847429956],[4.655376630188112,45.876381038762894],[4.526620498380944,45.87896087422755],[4.397851875830216,45.881393255526675],[4.269072382921317,45.88367818481367],[4.140283139851844,45.88581604606778],[4.011484797182408,45.887806401808014],[3.882677970714854,45.889648682029986],[3.7538629620364703,45.89134325313479],[3.625039731452706,45.89289078528939],[3.627154008234815,45.982847082488]]]}},{"type":"Feature","properties":{"dfci":"GG","resolution_km":100,"label":"DFCI GG (100 km)"},"geometry":{"type":"Polygon","coordinates":[[[3.6378311730466413,46.43263268653064],[3.6356819715503965,46.34267598444586],[3.6335393972747667,46.252718849894414],[3.631403745149474,46.16276148910828],[3.629275272026001,46.072804120707616],[3.627154008234815,45.982847082488],[3.625039731452706,45.89289078528939],[3.500000000000001,45.89425229242314],[3.4999999999999996,46.500000000000014],[3.639464937789434,46.50082971407509],[3.6378311730466413,46.43263268653064]]]}}]}