{"type":"FeatureCollection","features":[{"type":"Feature","properties":{"dfci":"HF60","resolution_km":20,"label":"DFCI HF60 (20 km)"},"geometry":{"type":"Polygon","coordinates":[[[4.3711904596498385,45.1619349720075],[4.625384196105524,45.15698903879967],[4.619018379446435,45.001915302371195],[4.365371719154619,45.002467258700506],[4.3711904596498385,45.1619349720075]]]}},{"type":"Feature","properties":{"dfci":"HF40","resolution_km":20,"label":"DFCI HF40 (20 km)"},"geometry":{"type":"Polygon","coordinates":[[[4.116954201128487,45.16629848165455],[4.3711904596498385,45.1619349720075],[4.365371719154619,45.002467258700506],[4.111722300773024,45.00244115754732],[4.116954201128487,45.16629848165455]]]}},{"type":"Feature","properties":{"dfci":"HF20","resolution_km":20,"label":"DFCI HF20 (20 km)"},"geometry":{"type":"Polygon","coordinates":[[[3.862675778847812,45.17008144388375],[4.116954201128487,45.16629848165455],[4.111722300773024,45.00244115754732],[3.858071432393065,45.00183698332661],[3.862675778847812,45.17008144388375]]]}},{"type":"Feature","properties":{"dfci":"HF62","resolution_km":20,"label":"DFCI HF62 (20 km)"},"geometry":{"type":"Polygon","coordinates":[[[4.377791356618585,45.34178789763652],[4.632810390117285,45.336825085158786],[4.625384196105524,45.15698903879967],[4.3711904596498385,45.1619349720075],[4.377791356618585,45.34178789763652]]]}},{"type":"Feature","properties":{"dfci":"HF42","resolution_km":20,"label":"DFCI HF42 (20 km)"},"geometry":{"type":"Polygon","coordinates":[[[4.122729916601145,45.34616645445531],[4.377791356618585,45.34178789763652],[4.3711904596498385,45.1619349720075],[4.116954201128487,45.16629848165455],[4.122729916601145,45.34616645445531]]]}},{"type":"Feature","properties":{"dfci":"HF00","resolution_km":20,"label":"DFCI HF00 (20 km)"},"geometry":{"type":"Polygon","coordinates":[[[3.6083676534367504,45.173282258423505],[3.862675778847812,45.17008144388375],[3.858071432393065,45.00183698332661],[3.6044329349041173,45.00065477541379],[3.6083676534367504,45.173282258423505]]]}},{"type":"Feature","properties":{"dfci":"GF80","resolution_km":20,"label":"DFCI GF80 (20 km)"},"geometry":{"type":"Polygon","coordinates":[[[3.6083676534367504,45.173282258423505],[3.6044329349041173,45.00065477541379],[3.500000000000001,45.00000000000001],[3.500000000000001,45.17446875162561],[3.6083676534367504,45.173282258423505]]]}},{"type":"Feature","properties":{"dfci":"HF02","resolution_km":20,"label":"DFCI HF02 (20 km)"},"geometry":{"type":"Polygon","coordinates":[[[3.6124941486433326,45.35317414149548],[3.8676276311677906,45.34996227518117],[3.862675778847812,45.17008144388375],[3.6083676534367504,45.173282258423505],[3.6124941486433326,45.35317414149548]]]}},{"type":"Feature","properties":{"dfci":"GF82","resolution_km":20,"label":"DFCI GF82 (20 km)"},"geometry":{"type":"Polygon","coordinates":[[[3.6124941486433326,45.35317414149548],[3.6083676534367504,45.173282258423505],[3.500000000000001,45.17446875162561],[3.500000000000001,45.35440416043978],[3.6124941486433326,45.35317414149548]]]}},{"type":"Feature","properties":{"dfci":"KF00","resolution_km":20,"label":"DFCI KF00 (20 km)"},"geometry":{"type":"Polygon","coordinates":[[[4.879529277114082,45.15146172240137],[4.999999999999999,45.14863722868073],[5.0,45.00000000000001],[4.8726564806515436,45.00078531166107],[4.879529277114082,45.15146172240137]]]}},{"type":"Feature","properties":{"dfci":"HF80","resolution_km":20,"label":"DFCI HF80 (20 km)"},"geometry":{"type":"Polygon","coordinates":[[[4.625384196105524,45.15698903879967],[4.879529277114082,45.15146172240137],[4.8726564806515436,45.00078531166107],[4.619018379446435,45.001915302371195],[4.625384196105524,45.15698903879967]]]}},{"type":"Feature","properties":{"dfci":"KF02","resolution_km":20,"label":"DFCI KF02 (20 km)"},"geometry":{"type":"Polygon","coordinates":[[[4.8877776125523384,45.331279237334286],[4.999999999999999,45.328652871232855],[4.999999999999999,45.14863722868073],[4.879529277114082,45.15146172240137],[4.8877776125523384,45.331279237334286]]]}},{"type":"Feature","properties":{"dfci":"HF82","resolution_km":20,"label":"DFCI HF82 (20 km)"},"geometry":{"type":"Polygon","coordinates":[[[4.632810390117285,45.336825085158786],[4.8877776125523384,45.331279237334286],[4.879529277114082,45.15146172240137],[4.625384196105524,45.15698903879967],[4.632810390117285,45.336825085158786]]]}},{"type":"Feature","properties":{"dfci":"KF04","resolution_km":20,"label":"DFCI KF04 (20 km)"},"geometry":{"type":"Polygon","coordinates":[[[4.896080771963669,45.511107661131874],[5.000000000000001,45.50867946246131],[4.999999999999999,45.328652871232855],[4.8877776125523384,45.331279237334286],[4.896080771963669,45.511107661131874]]]}},{"type":"Feature","properties":{"dfci":"HF84","resolution_km":20,"label":"DFCI HF84 (20 km)"},"geometry":{"type":"Polygon","coordinates":[[[4.640283159722666,45.516673071956944],[4.896080771963669,45.511107661131874],[4.8877776125523384,45.331279237334286],[4.632810390117285,45.336825085158786],[4.640283159722666,45.516673071956944]]]}},{"type":"Feature","properties":{"dfci":"KF06","resolution_km":20,"label":"DFCI KF06 (20 km)"},"geometry":{"type":"Polygon","coordinates":[[[4.9044390310497015,45.69094259308324],[5.000000000000001,45.68871321556295],[5.000000000000001,45.50867946246131],[4.896080771963669,45.511107661131874],[4.9044390310497015,45.69094259308324]]]}},{"type":"Feature","properties":{"dfci":"HF86","resolution_km":20,"label":"DFCI HF86 (20 km)"},"geometry":{"type":"Polygon","coordinates":[[[4.647805734105745,45.69652570036359],[4.9044390310497015,45.69094259308324],[4.896080771963669,45.511107661131874],[4.640283159722666,45.516673071956944],[4.647805734105745,45.69652570036359]]]}},{"type":"Feature","properties":{"dfci":"KF08","resolution_km":20,"label":"DFCI KF08 (20 km)"},"geometry":{"type":"Polygon","coordinates":[[[4.912849313811569,45.87077924484517],[5.0,45.86874991557602],[5.000000000000001,45.68871321556295],[4.9044390310497015,45.69094259308324],[4.912849313811569,45.87077924484517]]]}},{"type":"Feature","properties":{"dfci":"HF88","resolution_km":20,"label":"DFCI HF88 (20 km)"},"geometry":{"type":"Polygon","coordinates":[[[4.655376630188112,45.876381038762894],[4.912849313811569,45.87077924484517],[4.9044390310497015,45.69094259308324],[4.647805734105745,45.69652570036359],[4.655376630188112,45.876381038762894]]]}},{"type":"Feature","properties":{"dfci":"HF22","resolution_km":20,"label":"DFCI HF22 (20 km)"},"geometry":{"type":"Polygon","coordinates":[[[3.8676276311677906,45.34996227518117],[4.122729916601145,45.34616645445531],[4.116954201128487,45.16629848165455],[3.862675778847812,45.17008144388375],[3.8676276311677906,45.34996227518117]]]}},{"type":"Feature","properties":{"dfci":"HF64","resolution_km":20,"label":"DFCI HF64 (20 km)"},"geometry":{"type":"Polygon","coordinates":[[[4.384435755951202,45.521650723482544],[4.640283159722666,45.516673071956944],[4.632810390117285,45.336825085158786],[4.377791356618585,45.34178789763652],[4.384435755951202,45.521650723482544]]]}},{"type":"Feature","properties":{"dfci":"HF44","resolution_km":20,"label":"DFCI HF44 (20 km)"},"geometry":{"type":"Polygon","coordinates":[[[4.12854203985687,45.526043252039635],[4.384435755951202,45.521650723482544],[4.377791356618585,45.34178789763652],[4.122729916601145,45.34616645445531],[4.12854203985687,45.526043252039635]]]}},{"type":"Feature","properties":{"dfci":"HF24","resolution_km":20,"label":"DFCI HF24 (20 km)"},"geometry":{"type":"Polygon","coordinates":[[[3.8726114889713776,45.52985221759322],[4.12854203985687,45.526043252039635],[4.122729916601145,45.34616645445531],[3.8676276311677906,45.34996227518117],[3.8726114889713776,45.52985221759322]]]}},{"type":"Feature","properties":{"dfci":"HF66","resolution_km":20,"label":"DFCI HF66 (20 km)"},"geometry":{"type":"Polygon","coordinates":[[[4.391122518279637,45.70151998949122],[4.647805734105745,45.69652570036359],[4.640283159722666,45.516673071956944],[4.384435755951202,45.521650723482544],[4.391122518279637,45.70151998949122]]]}},{"type":"Feature","properties":{"dfci":"HF46","resolution_km":20,"label":"DFCI HF46 (20 km)"},"geometry":{"type":"Polygon","coordinates":[[[4.134392490299477,45.705927004082525],[4.391122518279637,45.70151998949122],[4.384435755951202,45.521650723482544],[4.12854203985687,45.526043252039635],[4.134392490299477,45.705927004082525]]]}},{"type":"Feature","properties":{"dfci":"HF26","resolution_km":20,"label":"DFCI HF26 (20 km)"},"geometry":{"type":"Polygon","coordinates":[[[3.877628048898488,45.709748557061914],[4.134392490299477,45.705927004082525],[4.12854203985687,45.526043252039635],[3.8726114889713776,45.52985221759322],[3.877628048898488,45.709748557061914]]]}},{"type":"Feature","properties":{"dfci":"HF68","resolution_km":20,"label":"DFCI HF68 (20 km)"},"geometry":{"type":"Polygon","coordinates":[[[4.397851875830216,45.881393255526675],[4.655376630188112,45.876381038762894],[4.647805734105745,45.69652570036359],[4.391122518279637,45.70151998949122],[4.397851875830216,45.881393255526675]]]}},{"type":"Feature","properties":{"dfci":"HF48","resolution_km":20,"label":"DFCI HF48 (20 km)"},"geometry":{"type":"Polygon","coordinates":[[[4.140283139851844,45.88581604606778],[4.397851875830216,45.881393255526675],[4.391122518279637,45.70151998949122],[4.134392490299477,45.705927004082525],[4.140283139851844,45.88581604606778]]]}},{"type":"Feature","properties":{"dfci":"HF28","resolution_km":20,"label":"DFCI HF28 (20 km)"},"geometry":{"type":"Polygon","coordinates":[[[3.882677970714854,45.889648682029986],[4.140283139851844,45.88581604606778],[4.134392490299477,45.705927004082525],[3.877628048898488,45.709748557061914],[3.882677970714854,45.889648682029986]]]}},{"type":"Feature","properties":{"dfci":"HF04","resolution_km":20,"label":"DFCI HF04 (20 km)"},"geometry":{"type":"Polygon","coordinates":[[[3.616649044563445,45.53307479721759],[3.8726114889713776,45.52985221759322],[3.8676276311677906,45.34996227518117],[3.6124941486433326,45.35317414149548],[3.616649044563445,45.53307479721759]]]}},{"type":"Feature","properties":{"dfci":"GF84","resolution_km":20,"label":"DFCI GF84 (20 km)"},"geometry":{"type":"Polygon","coordinates":[[[3.616649044563445,45.53307479721759],[3.6124941486433326,45.35317414149548],[3.500000000000001,45.35440416043978],[3.500000000000001,45.5343483714373],[3.616649044563445,45.53307479721759]]]}},{"type":"Feature","properties":{"dfci":"HF06","resolution_km":20,"label":"DFCI HF06 (20 km)"},"geometry":{"type":"Polygon","coordinates":[[[3.6208310993969928,45.712981054273094],[3.877628048898488,45.709748557061914],[3.8726114889713776,45.52985221759322],[3.616649044563445,45.53307479721759],[3.6208310993969928,45.712981054273094]]]}},{"type":"Feature","properties":{"dfci":"GF86","resolution_km":20,"label":"DFCI GF86 (20 km)"},"geometry":{"type":"Polygon","coordinates":[[[3.6208310993969928,45.712981054273094],[3.616649044563445,45.53307479721759],[3.500000000000001,45.5343483714373],[3.4999999999999996,45.71429840753861],[3.6208310993969928,45.712981054273094]]]}},{"type":"Feature","properties":{"dfci":"HF08","resolution_km":20,"label":"DFCI HF08 (20 km)"},"geometry":{"type":"Polygon","coordinates":[[[3.625039731452706,45.89289078528939],[3.882677970714854,45.889648682029986],[3.877628048898488,45.709748557061914],[3.6208310993969928,45.712981054273094],[3.625039731452706,45.89289078528939]]]}},{"type":"Feature","properties":{"dfci":"GF88","resolution_km":20,"label":"DFCI GF88 (20 km)"},"geometry":{"type":"Polygon","coordinates":[[[3.625039731452706,45.89289078528939],[3.6208310993969928,45.712981054273094],[3.4999999999999996,45.71429840753861],[3.500000000000001,45.89425198702125],[3.625039731452706,45.89289078528939]]]}},{"type":"Feature","properties":{"dfci":"HG60","resolution_km":20,"label":"DFCI HG60 (20 km)"},"geometry":{"type":"Polygon","coordinates":[[[4.404626614404482,46.0612689705787],[4.662996447602741,46.0562405495073],[4.655376630188112,45.876381038762894],[4.397851875830216,45.881393255526675],[4.404626614404482,46.0612689705787]]]}},{"type":"Feature","properties":{"dfci":"HG40","resolution_km":20,"label":"DFCI HG40 (20 km)"},"geometry":{"type":"Polygon","coordinates":[[[4.146213951534062,46.065705862201966],[4.404626614404482,46.0612689705787],[4.397851875830216,45.881393255526675],[4.140283139851844,45.88581604606778],[4.146213951534062,46.065705862201966]]]}},{"type":"Feature","properties":{"dfci":"HG20","resolution_km":20,"label":"DFCI HG20 (20 km)"},"geometry":{"type":"Polygon","coordinates":[[[3.8877618477273814,46.06955066340099],[4.146213951534062,46.065705862201966],[4.140283139851844,45.88581604606778],[3.882677970714854,45.889648682029986],[3.8877618477273814,46.06955066340099]]]}},{"type":"Feature","properties":{"dfci":"HG62","resolution_km":20,"label":"DFCI HG62 (20 km)"},"geometry":{"type":"Polygon","coordinates":[[[4.411447583275582,46.24114490038758],[4.670667852968539,46.23610001216039],[4.662996447602741,46.0562405495073],[4.404626614404482,46.0612689705787],[4.411447583275582,46.24114490038758]]]}},{"type":"Feature","properties":{"dfci":"HG42","resolution_km":20,"label":"DFCI HG42 (20 km)"},"geometry":{"type":"Polygon","coordinates":[[[4.152182627719711,46.24559630954289],[4.411447583275582,46.24114490038758],[4.404626614404482,46.0612689705787],[4.146213951534062,46.065705862201966],[4.152182627719711,46.24559630954289]]]}},{"type":"Feature","properties":{"dfci":"HG22","resolution_km":20,"label":"DFCI HG22 (20 km)"},"geometry":{"type":"Polygon","coordinates":[[[3.892878124663292,46.24945378637306],[4.152182627719711,46.24559630954289],[4.146213951534062,46.065705862201966],[3.8877618477273814,46.06955066340099],[3.892878124663292,46.24945378637306]]]}},{"type":"Feature","properties":{"dfci":"HG64","resolution_km":20,"label":"DFCI HG64 (20 km)"},"geometry":{"type":"Polygon","coordinates":[[[4.418312985770717,46.421019991596935],[4.678389202999514,46.41595876433778],[4.670667852968539,46.23610001216039],[4.411447583275582,46.24114490038758],[4.418312985770717,46.421019991596935]]]}},{"type":"Feature","properties":{"dfci":"HG44","resolution_km":20,"label":"DFCI HG44 (20 km)"},"geometry":{"type":"Polygon","coordinates":[[[4.158189406806841,46.4254858545356],[4.418312985770717,46.421019991596935],[4.411447583275582,46.24114490038758],[4.152182627719711,46.24559630954289],[4.158189406806841,46.4254858545356]]]}},{"type":"Feature","properties":{"dfci":"HG24","resolution_km":20,"label":"DFCI HG24 (20 km)"},"geometry":{"type":"Polygon","coordinates":[[[3.898027658148214,46.42935615257248],[4.158189406806841,46.4254858545356],[4.152182627719711,46.24559630954289],[3.892878124663292,46.24945378637306],[3.898027658148214,46.42935615257248]]]}},{"type":"Feature","properties":{"dfci":"HG66","resolution_km":20,"label":"DFCI HG66 (20 km)"},"geometry":{"type":"Polygon","coordinates":[[[4.421431446820589,46.50233110328021],[4.682085665196605,46.501643263895076],[4.678389202999514,46.41595876433778],[4.418312985770717,46.421019991596935],[4.421431446820589,46.50233110328021]]]}},{"type":"Feature","properties":{"dfci":"HG00","resolution_km":20,"label":"DFCI HG00 (20 km)"},"geometry":{"type":"Polygon","coordinates":[[[3.629275272026001,46.072804120707616],[3.8877618477273814,46.06955066340099],[3.882677970714854,45.889648682029986],[3.625039731452706,45.89289078528939],[3.629275272026001,46.072804120707616]]]}},{"type":"Feature","properties":{"dfci":"GG80","resolution_km":20,"label":"DFCI GG80 (20 km)"},"geometry":{"type":"Polygon","coordinates":[[[3.629275272026001,46.072804120707616],[3.625039731452706,45.89289078528939],[3.500000000000001,45.89425198702125],[3.5,46.07420906489187],[3.629275272026001,46.072804120707616]]]}},{"type":"Feature","properties":{"dfci":"HG02","resolution_km":20,"label":"DFCI HG02 (20 km)"},"geometry":{"type":"Polygon","coordinates":[[[3.6335393972747667,46.252718849894414],[3.892878124663292,46.24945378637306],[3.8877618477273814,46.06955066340099],[3.629275272026001,46.072804120707616],[3.6335393972747667,46.252718849894414]]]}},{"type":"Feature","properties":{"dfci":"GG82","resolution_km":20,"label":"DFCI GG82 (20 km)"},"geometry":{"type":"Polygon","coordinates":[[[3.6335393972747667,46.252718849894414],[3.629275272026001,46.072804120707616],[3.5,46.07420906489187],[3.4999999999999996,46.254167707034526],[3.6335393972747667,46.252718849894414]]]}},{"type":"Feature","properties":{"dfci":"HG04","resolution_km":20,"label":"DFCI HG04 (20 km)"},"geometry":{"type":"Polygon","coordinates":[[[3.6378311730466413,46.43263268653064],[3.898027658148214,46.42935615257248],[3.892878124663292,46.24945378637306],[3.6335393972747667,46.252718849894414],[3.6378311730466413,46.43263268653064]]]}},{"type":"Feature","properties":{"dfci":"GG84","resolution_km":20,"label":"DFCI GG84 (20 km)"},"geometry":{"type":"Polygon","coordinates":[[[3.6378311730466413,46.43263268653064],[3.6335393972747667,46.252718849894414],[3.4999999999999996,46.254167707034526],[3.5000000000000004,46.43412583487223],[3.6378311730466413,46.43263268653064]]]}},{"type":"Feature","properties":{"dfci":"HG06","resolution_km":20,"label":"DFCI HG06 (20 km)"},"geometry":{"type":"Polygon","coordinates":[[[3.639465056361637,46.50082971470819],[3.900114865241221,46.50192432488034],[3.898027658148214,46.42935615257248],[3.6378311730466413,46.43263268653064],[3.639465056361637,46.50082971470819]]]}},{"type":"Feature","properties":{"dfci":"HG46","resolution_km":20,"label":"DFCI HG46 (20 km)"},"geometry":{"type":"Polygon","coordinates":[[[4.1607711566656125,46.50242479213358],[4.421431446820589,46.50233110328021],[4.418312985770717,46.421019991596935],[4.158189406806841,46.4254858545356],[4.1607711566656125,46.50242479213358]]]}},{"type":"Feature","properties":{"dfci":"HG26","resolution_km":20,"label":"DFCI HG26 (20 km)"},"geometry":{"type":"Polygon","coordinates":[[[3.900114865241221,46.50192432488034],[4.1607711566656125,46.50242479213358],[4.158189406806841,46.4254858545356],[3.898027658148214,46.42935615257248],[3.900114865241221,46.50192432488034]]]}},{"type":"Feature","properties":{"dfci":"GG86","resolution_km":20,"label":"DFCI GG86 (20 km)"},"geometry":{"type":"Polygon","coordinates":[[[3.6378311730466413,46.43263268653064],[3.5000000000000004,46.43412583487223],[3.4999999999999996,46.500000000000014],[3.639465056361637,46.50082971470819],[3.6378311730466413,46.43263268653064]]]}},{"type":"Feature","properties":{"dfci":"KG00","resolution_km":20,"label":"DFCI KG00 (20 km)"},"geometry":{"type":"Polygon","coordinates":[[[4.921311815257214,46.05062034200703],[4.999999999999999,46.048790664212376],[5.0,45.86874991557602],[4.912849313811569,45.87077924484517],[4.921311815257214,46.05062034200703]]]}},{"type":"Feature","properties":{"dfci":"HG80","resolution_km":20,"label":"DFCI HG80 (20 km)"},"geometry":{"type":"Polygon","coordinates":[[[4.662996447602741,46.0562405495073],[4.921311815257214,46.05062034200703],[4.912849313811569,45.87077924484517],[4.655376630188112,45.876381038762894],[4.662996447602741,46.0562405495073]]]}},{"type":"Feature","properties":{"dfci":"KG02","resolution_km":20,"label":"DFCI KG02 (20 km)"},"geometry":{"type":"Polygon","coordinates":[[[4.929835582070612,46.23046159618361],[5.0,46.22883256440022],[4.999999999999999,46.048790664212376],[4.921311815257214,46.05062034200703],[4.929835582070612,46.23046159618361]]]}},{"type":"Feature","properties":{"dfci":"HG82","resolution_km":20,"label":"DFCI HG82 (20 km)"},"geometry":{"type":"Polygon","coordinates":[[[4.670667852968539,46.23610001216039],[4.929835582070612,46.23046159618361],[4.921311815257214,46.05062034200703],[4.662996447602741,46.0562405495073],[4.670667852968539,46.23610001216039]]]}},{"type":"Feature","properties":{"dfci":"KG04","resolution_km":20,"label":"DFCI KG04 (20 km)"},"geometry":{"type":"Polygon","coordinates":[[[4.938413156581861,46.41030221719529],[4.999999999999999,46.408874659709845],[5.0,46.22883256440022],[4.929835582070612,46.23046159618361],[4.938413156581861,46.41030221719529]]]}},{"type":"Feature","properties":{"dfci":"HG84","resolution_km":20,"label":"DFCI HG84 (20 km)"},"geometry":{"type":"Polygon","coordinates":[[[4.678389202999514,46.41595876433778],[4.938413156581861,46.41030221719529],[4.929835582070612,46.23046159618361],[4.670667852968539,46.23610001216039],[4.678389202999514,46.41595876433778]]]}},{"type":"Feature","properties":{"dfci":"KG06","resolution_km":20,"label":"DFCI KG06 (20 km)"},"geometry":{"type":"Polygon","coordinates":[[[4.942731100399617,46.50036129424192],[4.999999999999999,46.50000000000001],[4.999999999999999,46.408874659709845],[4.938413156581861,46.41030221719529],[4.942731100399617,46.50036129424192]]]}},{"type":"Feature","properties":{"dfci":"HG86","resolution_km":20,"label":"DFCI HG86 (20 km)"},"geometry":{"type":"Polygon","coordinates":[[[4.682085665196605,46.501643263895076],[4.942731100399617,46.50036129424192],[4.938413156581861,46.41030221719529],[4.678389202999514,46.41595876433778],[4.682085665196605,46.501643263895076]]]}}]}