{
  "type": "FeatureCollection",
  "name": "hospital_loire_42",
  "crs": {
    "type": "name",
    "properties": {
      "name": "urn:ogc:def:crs:OGC:1.3:CRS84"
    }
  },
  "features": [
    {
      "type": "Feature",
      "properties": {
        "osm_id": 65640132,
        "osm_type": "way",
        "amenity": "hospital",
        "nom": "Centre de Réadaptation Cardio-Respiratoire de la Loire",
        "specialite": "hospital"
      },
      "geometry": {
        "type": "Point",
        "coordinates": [
          4.3655736,
          45.4772479
        ]
      }
    },
    {
      "type": "Feature",
      "properties": {
        "osm_id": 616666876,
        "osm_type": "way",
        "amenity": "hospital",
        "nom": "Centre hospitalier de Charlieu",
        "specialite": "hospital"
      },
      "geometry": {
        "type": "Point",
        "coordinates": [
          4.1649049,
          46.1596055
        ]
      }
    },
    {
      "type": "Feature",
      "properties": {
        "osm_id": 312331559,
        "osm_type": "way",
        "amenity": "hospital",
        "nom": "Centre hospitalier de Pélussin",
        "specialite": "hospital"
      },
      "geometry": {
        "type": "Point",
        "coordinates": [
          4.6718995,
          45.4175195
        ]
      }
    },
    {
      "type": "Feature",
      "properties": {
        "osm_id": 24040319,
        "osm_type": "way",
        "amenity": "hospital",
        "nom": "Centre hospitalier de Roanne",
        "adresse": "28 Rue de Charlieu 42300 Roanne",
        "telephone": "+33 4 77 44 30 00",
        "urgences": "yes",
        "specialite": "hospital",
        "website": "https://www.ch-roanne.fr/"
      },
      "geometry": {
        "type": "Point",
        "coordinates": [
          4.0790163,
          46.0426487
        ]
      }
    },
    {
      "type": "Feature",
      "properties": {
        "osm_id": 364298573,
        "osm_type": "way",
        "amenity": "hospital",
        "nom": "Centre hospitalier du Forez",
        "telephone": "+33 4 77 27 54 54",
        "urgences": "yes",
        "specialite": "hospital",
        "website": "https://www.ch-forez.fr/"
      },
      "geometry": {
        "type": "Point",
        "coordinates": [
          4.2215808,
          45.7459489
        ]
      }
    },
    {
      "type": "Feature",
      "properties": {
        "osm_id": 401601310,
        "osm_type": "way",
        "amenity": "hospital",
        "nom": "Centre hospitalier du Forez",
        "telephone": "+33 4 77 96 78 00",
        "urgences": "yes",
        "specialite": "hospital",
        "website": "https://www.ch-forez.fr/"
      },
      "geometry": {
        "type": "Point",
        "coordinates": [
          4.0489306,
          45.6130683
        ]
      }
    },
    {
      "type": "Feature",
      "properties": {
        "osm_id": 680335202,
        "osm_type": "way",
        "amenity": "hospital",
        "nom": "Centre hospitalier Georges Claudinon",
        "adresse": "Rue Paul Langevin 42500 Le Chambon Feugerolles",
        "urgences": "no",
        "specialite": "hospital",
        "website": "http://www.ch-claudinon.fr"
      },
      "geometry": {
        "type": "Point",
        "coordinates": [
          4.3209545,
          45.3911254
        ]
      }
    },
    {
      "type": "Feature",
      "properties": {
        "osm_id": 519706030,
        "osm_type": "way",
        "amenity": "hospital",
        "nom": "Centre médico-psychologique",
        "specialite": "hospital"
      },
      "geometry": {
        "type": "Point",
        "coordinates": [
          4.0778823,
          46.0441918
        ]
      }
    },
    {
      "type": "Feature",
      "properties": {
        "osm_id": 519692737,
        "osm_type": "way",
        "amenity": "hospital",
        "nom": "Clinique du Parc",
        "operateur": "Elsan",
        "telephone": "+33 4 77 92 22 22",
        "urgences": "yes",
        "website": "https://www.elsan.care/fr/clinique-parc-saint-priest"
      },
      "geometry": {
        "type": "Point",
        "coordinates": [
          4.3674597,
          45.4777038
        ]
      }
    },
    {
      "type": "Feature",
      "properties": {
        "osm_id": 426843763,
        "osm_type": "way",
        "amenity": "hospital",
        "nom": "Clinique du Renaison",
        "telephone": "+33 8 26 46 45 00",
        "urgences": "yes",
        "specialite": "hospital",
        "website": "http://www.clinique-renaison.fr/"
      },
      "geometry": {
        "type": "Point",
        "coordinates": [
          4.0524627,
          46.0334072
        ]
      }
    },
    {
      "type": "Feature",
      "properties": {
        "osm_id": 1292914048,
        "osm_type": "way",
        "amenity": "hospital",
        "nom": "Clinique Le Clos Montaigne",
        "operateur": "Inicea",
        "adresse": "282 Rue Montaigne 42210 Montrond-les-Bains",
        "telephone": "+33477360100",
        "urgences": "no",
        "specialite": "hospital",
        "horaires": "Mo-Su 09:00-12:00, 14:00-18:00",
        "website": "https://www.inicea.fr/sante-mentale/clinique-le-clos-montaigne-loire-42210"
      },
      "geometry": {
        "type": "Point",
        "coordinates": [
          4.2352951,
          45.6466394
        ]
      }
    },
    {
      "type": "Feature",
      "properties": {
        "osm_id": 63306030,
        "osm_type": "way",
        "amenity": "hospital",
        "nom": "Clinique mutualiste chirurgicale",
        "operateur": "Mutualité française Loire - Haute-Loire - Puy-de-Dôme",
        "telephone": "+33 4 77 12 12 12",
        "urgences": "yes",
        "specialite": "hospital",
        "website": "https://www.mutualite.fr/services/trouver-un-service-de-sante/clinique-mutualiste-chirurgicale-saint-etienne-cedex/"
      },
      "geometry": {
        "type": "Point",
        "coordinates": [
          4.394414,
          45.4144011
        ]
      }
    },
    {
      "type": "Feature",
      "properties": {
        "osm_id": 842464785,
        "osm_type": "way",
        "amenity": "hospital",
        "nom": "Clinique Nouvelle du Forez",
        "adresse": "28 Route Nouvelle",
        "specialite": "hospital",
        "website": "https://www.elsan.care/fr/clinique-forez"
      },
      "geometry": {
        "type": "Point",
        "coordinates": [
          4.0475043,
          45.6069756
        ]
      }
    },
    {
      "type": "Feature",
      "properties": {
        "osm_id": 2016895027,
        "osm_type": "node",
        "amenity": "hospital",
        "nom": "Hopital de St Bonnet le Château"
      },
      "geometry": {
        "type": "Point",
        "coordinates": [
          4.0669193,
          45.4246597
        ]
      }
    },
    {
      "type": "Feature",
      "properties": {
        "osm_id": 519692303,
        "osm_type": "way",
        "amenity": "hospital",
        "nom": "Hôpital Bellevue",
        "specialite": "hospital",
        "website": "https://www.chu-st-etienne.fr/Le_CHU/Coordonnees/Plan_Bellevue.asp"
      },
      "geometry": {
        "type": "Point",
        "coordinates": [
          4.3909928,
          45.4108886
        ]
      }
    },
    {
      "type": "Feature",
      "properties": {
        "osm_id": 519689660,
        "osm_type": "way",
        "amenity": "hospital",
        "nom": "Hôpital de la Charité",
        "urgences": "no",
        "specialite": "hospital"
      },
      "geometry": {
        "type": "Point",
        "coordinates": [
          4.3913404,
          45.432957
        ]
      }
    },
    {
      "type": "Feature",
      "properties": {
        "osm_id": 2156077596,
        "osm_type": "node",
        "amenity": "hospital",
        "nom": "Hôpital du Gier",
        "urgences": "no",
        "specialite": "hospital"
      },
      "geometry": {
        "type": "Point",
        "coordinates": [
          4.6193494,
          45.5264843
        ]
      }
    },
    {
      "type": "Feature",
      "properties": {
        "osm_id": 5389260,
        "osm_type": "relation",
        "amenity": "hospital",
        "nom": "Hôpital du Gier",
        "operateur": "Hôpital du Gier",
        "adresse": "19 Rue Victor Hugo 42400 Saint-Chamond",
        "telephone": "+33 4 77 31 19 19",
        "urgences": "yes",
        "specialite": "hospital",
        "website": "https://hopitaldugier.fr/"
      },
      "geometry": {
        "type": "Point",
        "coordinates": [
          4.5156458,
          45.4756052
        ]
      }
    },
    {
      "type": "Feature",
      "properties": {
        "osm_id": 508035451,
        "osm_type": "way",
        "amenity": "hospital",
        "nom": "Hôpital du Gier - Site Pinay",
        "adresse": "19 Rue Laurent Charles 42400 Saint-Chamond",
        "telephone": "+33 4 77 31 19 19",
        "urgences": "no",
        "specialite": "hospital",
        "website": "https://hopitaldugier.fr/"
      },
      "geometry": {
        "type": "Point",
        "coordinates": [
          4.5198946,
          45.4691451
        ]
      }
    },
    {
      "type": "Feature",
      "properties": {
        "osm_id": 660630149,
        "osm_type": "way",
        "amenity": "hospital",
        "nom": "Hôpital Le Corbusier",
        "adresse": "2 Rue Robert Plotton 42704 Firminy",
        "telephone": "+33 4 77 40 41 42",
        "specialite": "hospital",
        "website": "https://hopital-lecorbusier.fr/"
      },
      "geometry": {
        "type": "Point",
        "coordinates": [
          4.2902175,
          45.3877514
        ]
      }
    },
    {
      "type": "Feature",
      "properties": {
        "osm_id": 897730684,
        "osm_type": "way",
        "amenity": "hospital",
        "nom": "Hôpital Local de Saint-Pierre-de-Bœuf",
        "telephone": "+33474879000",
        "specialite": "hospital"
      },
      "geometry": {
        "type": "Point",
        "coordinates": [
          4.747193,
          45.380981
        ]
      }
    },
    {
      "type": "Feature",
      "properties": {
        "osm_id": 179741620,
        "osm_type": "way",
        "amenity": "hospital",
        "nom": "Hôpital Maurice André",
        "specialite": "hospital"
      },
      "geometry": {
        "type": "Point",
        "coordinates": [
          4.3018601,
          45.5981778
        ]
      }
    },
    {
      "type": "Feature",
      "properties": {
        "osm_id": 447688255,
        "osm_type": "way",
        "amenity": "hospital",
        "nom": "Hôpital Nord",
        "adresse": "CHU de Saint-Étienne Hôpital Nord - 42055 SAINT-ÉTIENNE CEDEX 2",
        "telephone": "+33 4 77 82 80 00",
        "urgences": "yes",
        "specialite": "intensive",
        "website": "https://www.chu-st-etienne.fr/"
      },
      "geometry": {
        "type": "Point",
        "coordinates": [
          4.3615623,
          45.4816019
        ]
      }
    },
    {
      "type": "Feature",
      "properties": {
        "osm_id": 63335833,
        "osm_type": "way",
        "amenity": "hospital",
        "nom": "Hôpital Privé de la Loire",
        "operateur": "Ramsay Santé",
        "telephone": "+33 826 30 42 42",
        "urgences": "yes",
        "specialite": "hospital",
        "website": "https://hopital-prive-de-la-loire-saint-etienne.ramsaygds.fr/"
      },
      "geometry": {
        "type": "Point",
        "coordinates": [
          4.4180061,
          45.4282522
        ]
      }
    }
  ]
}